[{"OBJECT_NAME":"LYNK TOWER 4","OBJECT_ID":"2023-001AB","EPOCH":"2026-03-09T16:15:30.644928","MEAN_MOTION":15.31819885,"ECCENTRICITY":0.00103213,"INCLINATION":97.3324,"RA_OF_ASC_NODE":128.594,"ARG_OF_PERICENTER":112.3386,"MEAN_ANOMALY":247.895,"EPHEMERIS_TYPE":0,"CLASSIFICATION_TYPE":"U","NORAD_CAT_ID":55034,"ELEMENT_SET_NO":999,"REV_AT_EPOCH":17658,"BSTAR":0.00030013829,"MEAN_MOTION_DOT":9.16e-5,"MEAN_MOTION_DDOT":0},{"OBJECT_NAME":"STARLINK-33618","OBJECT_ID":"2025-063M","EPOCH":"2026-03-09T22:21:53.761536","MEAN_MOTION":15.30222717,"ECCENTRICITY":0.00016959,"INCLINATION":53.1607,"RA_OF_ASC_NODE":48.6989,"ARG_OF_PERICENTER":89.6814,"MEAN_ANOMALY":270.4381,"EPHEMERIS_TYPE":0,"CLASSIFICATION_TYPE":"U","NORAD_CAT_ID":63374,"ELEMENT_SET_NO":999,"REV_AT_EPOCH":5483,"BSTAR":0.0013630213,"MEAN_MOTION_DOT":0.00040257,"MEAN_MOTION_DDOT":0}]
